[{"OBJECT_NAME":"STARLINK-30188","OBJECT_ID":"2023-105C","EPOCH":"2026-03-09T22:00:01.999584","MEAN_MOTION":15.12347559,"ECCENTRICITY":0.00023729,"INCLINATION":42.9998,"RA_OF_ASC_NODE":259.9305,"ARG_OF_PERICENTER":277.6311,"MEAN_ANOMALY":331.0502,"EPHEMERIS_TYPE":0,"CLASSIFICATION_TYPE":"U","NORAD_CAT_ID":57432,"ELEMENT_SET_NO":999,"REV_AT_EPOCH":572,"BSTAR":0.004944245,"MEAN_MOTION_DOT":0.00088094,"MEAN_MOTION_DDOT":0},{"OBJECT_NAME":"OV3-3","OBJECT_ID":"1966-070A","EPOCH":"2026-03-09T22:03:14.294880","MEAN_MOTION":13.42594145,"ECCENTRICITY":0.10245609,"INCLINATION":81.3241,"RA_OF_ASC_NODE":58.4456,"ARG_OF_PERICENTER":54.9014,"MEAN_ANOMALY":314.389,"EPHEMERIS_TYPE":0,"CLASSIFICATION_TYPE":"U","NORAD_CAT_ID":2389,"ELEMENT_SET_NO":999,"REV_AT_EPOCH":58563,"BSTAR":0.00080880724,"MEAN_MOTION_DOT":0.00018028,"MEAN_MOTION_DDOT":0}]
